OBJECT_NAME,OBJECT_ID,EPOCH,MEAN_MOTION,ECCENTRICITY,INCLINATION,RA_OF_ASC_NODE,ARG_OF_PERICENTER,MEAN_ANOMALY,EPHEMERIS_TYPE,CLASSIFICATION_TYPE,NORAD_CAT_ID,ELEMENT_SET_NO,REV_AT_EPOCH,BSTAR,MEAN_MOTION_DOT,MEAN_MOTION_DDOT
TIANMU-1 20,2023-208B,2026-06-15T22:53:21.583392,15.32749041,.00061267,97.4451,283.8808,339.0977,21.0013,0,U,58661,999,13723,.21544051E-3,.6737E-4,0
TIANMU-1 21,2023-208C,2026-06-15T22:39:14.757984,15.35058568,.00060459,97.4510,286.5461,329.2499,30.8389,0,U,58662,999,13737,.23863528E-3,.804E-4,0
TIANMU-1 22,2023-208D,2026-06-15T23:04:48.047808,15.31043695,.00033439,97.4506,283.1918,8.5348,351.5949,0,U,58663,999,13714,.21058396E-3,.6238E-4,0
TIANMU-1 15,2024-004A,2026-06-15T23:37:52.564224,15.27013245,.00068417,97.4662,353.1746,6.6760,353.4569,0,U,58700,999,13559,.18162238E-3,.4742E-4,0
TIANMU-1 16,2024-004B,2026-06-15T23:22:03.883584,15.26738232,.00059658,97.4608,352.4019,11.9134,348.2245,0,U,58701,999,13559,.18208525E-3,.4714E-4,0
TIANMU-1 17,2024-004C,2026-06-15T23:01:06.996864,15.26737393,.00056459,97.4636,352.8718,18.4949,341.6494,0,U,58702,999,13558,.17950645E-3,.4646E-4,0
TIANMU-1 18,2024-004D,2026-06-15T22:27:24.966432,15.26995081,.00041724,97.4655,353.1031,19.5599,340.5799,0,U,58703,999,13558,.17855644E-3,.4657E-4,0
INSAT-3DS,2024-033A,2026-06-15T20:17:43.721088,1.00271452,.00009863,0.0428,115.1093,318.9436,216.6040,0,U,58990,999,4705,0,-.155E-5,0
METEOR-M2 4,2024-039A,2026-06-15T23:42:10.238400,14.22429407,.00072176,98.7010,126.3007,164.3484,195.7918,0,U,59051,999,11909,.16507978E-4,-.7E-7,0
GOES 19,2024-119A,2026-06-15T19:32:53.142144,1.00271392,.00003728,0.0045,299.2120,249.6832,293.2307,0,U,60133,999,695,0,-.247E-5,0
MTG-S1,2025-143A,2026-06-15T07:54:41.857632,1.00271862,.0000988,0.6048,338.5512,10.7068,29.5609,0,U,64723,999,340,0,-.28E-6,0
METOP-SGA1,2025-172A,2026-06-15T20:55:21.702144,14.21509637,.00009074,98.6644,226.6234,93.5803,266.5478,0,U,65159,999,4360,.41277463E-4,.47E-6,0
FENGYUN 3H,2025-219A,2026-06-15T20:14:06.508032,14.19920260,.00015824,98.6768,107.6383,77.2531,282.8823,0,U,65815,999,3719,.37474356E-4,.36E-6,0
