TIANMU-1 20             
1 58661U 23208B   26166.95372203  .00006737  00000+0  21544-3 0  9994
2 58661  97.4451 283.8808 0006126 339.0977  21.0013 15.32749041137237
TIANMU-1 21             
1 58662U 23208C   26166.94392081  .00008040  00000+0  23864-3 0  9996
2 58662  97.4510 286.5461 0006045 329.2499  30.8389 15.35058568137378
TIANMU-1 22             
1 58663U 23208D   26166.96166722  .00006238  00000+0  21058-3 0  9990
2 58663  97.4506 283.1918 0003343   8.5348 351.5949 15.31043695137143
TIANMU-1 15             
1 58700U 24004A   26166.98463616  .00004742  00000+0  18162-3 0  9991
2 58700  97.4662 353.1746 0006841   6.6760 353.4569 15.27013245135597
TIANMU-1 16             
1 58701U 24004B   26166.97365606  .00004714  00000+0  18209-3 0  9992
2 58701  97.4608 352.4019 0005965  11.9134 348.2245 15.26738232135595
TIANMU-1 17             
1 58702U 24004C   26166.95910876  .00004646  00000+0  17951-3 0  9993
2 58702  97.4636 352.8718 0005645  18.4949 341.6494 15.26737393135587
TIANMU-1 18             
1 58703U 24004D   26166.93570563  .00004657  00000+0  17856-3 0  9993
2 58703  97.4655 353.1031 0004172  19.5599 340.5799 15.26995081135584
INSAT-3DS               
1 58990U 24033A   26166.84564492 -.00000155  00000+0  00000+0 0  9996
2 58990   0.0428 115.1093 0000986 318.9436 216.6040  1.00271452 47051
METEOR-M2 4             
1 59051U 24039A   26166.98761850 -.00000007  00000+0  16508-4 0  9994
2 59051  98.7010 126.3007 0007217 164.3484 195.7918 14.22429407119098
GOES 19                 
1 60133U 24119A   26166.81450396 -.00000247  00000+0  00000+0 0  9999
2 60133   0.0045 299.2120 0000372 249.6832 293.2307  1.00271392  6956
MTG-S1                  
1 64723U 25143A   26166.32965113 -.00000028  00000+0  00000+0 0  9997
2 64723   0.6048 338.5512 0000988  10.7068  29.5609  1.00271862  3401
METOP-SGA1              
1 65159U 25172A   26166.87177896  .00000047  00000+0  41277-4 0  9992
2 65159  98.6644 226.6234 0000907  93.5803 266.5478 14.21509637 43603
FENGYUN 3H              
1 65815U 25219A   26166.84313088  .00000036  00000+0  37474-4 0  9997
2 65815  98.6768 107.6383 0001582  77.2531 282.8823 14.19920260 37197
